{
    "links": {
        "self": "http://www.neowsapp.com/rest/v1/neo/54016810?api_key=iIulBulltgU6a56xZRHN4H3l9WmuAYTsLGpBGhQ2"
    },
    "id": "54016810",
    "neo_reference_id": "54016810",
    "name": "(2020 HX7)",
    "designation": "2020 HX7",
    "nasa_jpl_url": "http://ssd.jpl.nasa.gov/sbdb.cgi?sstr=54016810",
    "absolute_magnitude_h": 25.281,
    "estimated_diameter": {
        "kilometers": {
            "estimated_diameter_min": 0.0233536613,
            "estimated_diameter_max": 0.0522203741
        },
        "meters": {
            "estimated_diameter_min": 23.3536612622,
            "estimated_diameter_max": 52.2203741057
        },
        "miles": {
            "estimated_diameter_min": 0.0145112879,
            "estimated_diameter_max": 0.0324482261
        },
        "feet": {
            "estimated_diameter_min": 76.6196260153,
            "estimated_diameter_max": 171.3266921809
        }
    },
    "is_potentially_hazardous_asteroid": false,
    "close_approach_data": [
        {
            "close_approach_date": "2020-04-27",
            "close_approach_date_full": "2020-Apr-27 00:57",
            "epoch_date_close_approach": 1587949020000,
            "relative_velocity": {
                "kilometers_per_second": "5.9871616307",
                "kilometers_per_hour": "21553.7818703732",
                "miles_per_hour": "13392.6818516216"
            },
            "miss_distance": {
                "astronomical": "0.0716456152",
                "lunar": "27.8701443128",
                "kilometers": "10718031.428759624",
                "miles": "6659875.9072818512"
            },
            "orbiting_body": "Earth"
        }
    ],
    "orbital_data": {
        "orbit_id": "7",
        "orbit_determination_date": "2020-08-24 22:01:29",
        "first_observation_date": "2020-04-26",
        "last_observation_date": "2020-05-15",
        "data_arc_in_days": 19,
        "observations_used": 38,
        "orbit_uncertainty": "8",
        "minimum_orbit_intersection": ".0616601",
        "jupiter_tisserand_invariant": "3.658",
        "epoch_osculation": "2458972.5",
        "eccentricity": ".4768340840509521",
        "semi_major_axis": "2.032401341244102",
        "inclination": "1.625517013171111",
        "ascending_node_longitude": "236.8663277095224",
        "orbital_period": "1058.309357470207",
        "perihelion_distance": "1.063283109268044",
        "perihelion_argument": "327.0364161664297",
        "aphelion_distance": "3.00151957322016",
        "perihelion_time": "2458956.140674037446",
        "mean_anomaly": "5.564873167707235",
        "mean_motion": ".3401651865391679",
        "equinox": "J2000",
        "orbit_class": {
            "orbit_class_type": "AMO",
            "orbit_class_description": "Near-Earth asteroid orbits similar to that of 1221 Amor",
            "orbit_class_range": "1.017 AU < q (perihelion) < 1.3 AU"
        }
    },
    "is_sentry_object": false
}